[{"OBJECT_NAME":"ION SCV-010","OBJECT_ID":"2023-054Q","EPOCH":"2026-03-09T16:02:35.904768","MEAN_MOTION":15.25210322,"ECCENTRICITY":0.00127052,"INCLINATION":97.3904,"RA_OF_ASC_NODE":319.4312,"ARG_OF_PERICENTER":188.785,"MEAN_ANOMALY":171.3168,"EPHEMERIS_TYPE":0,"CLASSIFICATION_TYPE":"U","NORAD_CAT_ID":56192,"ELEMENT_SET_NO":999,"REV_AT_EPOCH":16102,"BSTAR":0.00025045068,"MEAN_MOTION_DOT":6.231e-5,"MEAN_MOTION_DDOT":0},{"OBJECT_NAME":"STARLINK-6214","OBJECT_ID":"2023-064AJ","EPOCH":"2026-03-09T19:04:55.016544","MEAN_MOTION":15.2175363,"ECCENTRICITY":0.00030859,"INCLINATION":69.9921,"RA_OF_ASC_NODE":92.3376,"ARG_OF_PERICENTER":258.5553,"MEAN_ANOMALY":101.5271,"EPHEMERIS_TYPE":0,"CLASSIFICATION_TYPE":"U","NORAD_CAT_ID":56480,"ELEMENT_SET_NO":999,"REV_AT_EPOCH":15655,"BSTAR":0.00032568833,"MEAN_MOTION_DOT":7.292e-5,"MEAN_MOTION_DDOT":0}]
